{"type": "FeatureCollection", "features": [ {"type": "Feature", "properties": {"norad_id": 66627, "name": "STARLINK-35904", "group": "last-30-days", "lat": 5.537587408988331, "lon": -152.09303952922488, "alt_km": 373.98123842739005, "timestamp": "2025-12-09T07:41:31.973593+00:00", "meta": {"OBJECT_NAME": "STARLINK-35904", "OBJECT_ID": "2025-271L", "EPOCH": "2025-12-08T22:00:03.000096", "MEAN_MOTION": 15.66557598, "ECCENTRICITY": 0.00010211, "INCLINATION": 53.1593, "RA_OF_ASC_NODE": 205.7178, "ARG_OF_PERICENTER": 119.1318, "MEAN_ANOMALY": 130.5376, "EPHEMERIS_TYPE": 0, "CLASSIFICATION_TYPE": "U", "NORAD_CAT_ID": 66627, "ELEMENT_SET_NO": 999, "REV_AT_EPOCH": 347, "BSTAR": -0.020667036, "MEAN_MOTION_DOT": -0.01945228, "MEAN_MOTION_DDOT": 0}, "tle": {"line1": "1 66627U 25271L   25342.91670139 -.01945228  00000+0 -20667-1 0  9990", "line2": "2 66627  53.1593 205.7178 0001021 119.1318 130.5376 15.66557598  3479"}}, "geometry": {"type": "Point", "coordinates": [-152.09303952922488, 5.537587408988331]}}, {"type": "Feature", "properties": {"norad_id": 66628, "name": "STARLINK-35862", "group": "last-30-days", "lat": 7.065258716252098, "lon": -150.93381479974883, "alt_km": 373.6760966669035, "timestamp": "2025-12-09T07:41:31.973605+00:00", "meta": {"OBJECT_NAME": "STARLINK-35862", "OBJECT_ID": "2025-271M", "EPOCH": "2025-12-08T22:00:03.000096", "MEAN_MOTION": 15.66605381, "ECCENTRICITY": 0.00010718, "INCLINATION": 53.1595, "RA_OF_ASC_NODE": 205.7137, "ARG_OF_PERICENTER": 111.7613, "MEAN_ANOMALY": 139.7897, "EPHEMERIS_TYPE": 0, "CLASSIFICATION_TYPE": "U", "NORAD_CAT_ID": 66628, "ELEMENT_SET_NO": 999, "REV_AT_EPOCH": 362, "BSTAR": -0.021212303, "MEAN_MOTION_DOT": -0.01993834, "MEAN_MOTION_DDOT": 0}, "tle": {"line1": "1 66628U 25271M   25342.91670139 -.01993834  00000+0 -21212-1 0  9994", "line2": "2 66628  53.1595 205.7137 0001071 111.7613 139.7897 15.66605381  3628"}}, "geometry": {"type": "Point", "coordinates": [-150.93381479974883, 7.065258716252098]}}, {"type": "Feature", "properties": {"norad_id": 66629, "name": "STARLINK-35956", "group": "last-30-days", "lat": 8.591901642524771, "lon": -149.76491047144265, "alt_km": 373.4049209240602, "timestamp": "2025-12-09T07:41:31.973618+00:00", "meta": {"OBJECT_NAME": "STARLINK-35956", "OBJECT_ID": "2025-271N", "EPOCH": "2025-12-08T22:00:03.000096", "MEAN_MOTION": 15.66608243, "ECCENTRICITY": 0.00010464, "INCLINATION": 53.1593, "RA_OF_ASC_NODE": 205.71, "ARG_OF_PERICENTER": 108.9096, "MEAN_ANOMALY": 144.5578, "EPHEMERIS_TYPE": 0, "CLASSIFICATION_TYPE": "U", "NORAD_CAT_ID": 66629, "ELEMENT_SET_NO": 999, "REV_AT_EPOCH": 362, "BSTAR": -0.021264178, "MEAN_MOTION_DOT": -0.01998307, "MEAN_MOTION_DDOT": 0}, "tle": {"line1": "1 66629U 25271N   25342.91670139 -.01998307  00000+0 -21264-1 0  9992", "line2": "2 66629  53.1593 205.7100 0001046 108.9096 144.5578 15.66608243  3622"}}, "geometry": {"type": "Point", "coordinates": [-149.76491047144265, 8.591901642524771]}}, {"type": "Feature", "properties": {"norad_id": 66630, "name": "STARLINK-35949", "group": "last-30-days", "lat": 10.114044416580866, "lon": -148.5882369365886, "alt_km": 373.166651938438, "timestamp": "2025-12-09T07:41:31.973628+00:00", "meta": {"OBJECT_NAME": "STARLINK-35949", "OBJECT_ID": "2025-271P", "EPOCH": "2025-12-08T22:00:03.000096", "MEAN_MOTION": 15.66605054, "ECCENTRICITY": 0.00010322, "INCLINATION": 53.1591, "RA_OF_ASC_NODE": 205.7053, "ARG_OF_PERICENTER": 109.9805, "MEAN_ANOMALY": 145.4051, "EPHEMERIS_TYPE": 0, "CLASSIFICATION_TYPE": "U", "NORAD_CAT_ID": 66630, "ELEMENT_SET_NO": 999, "REV_AT_EPOCH": 362, "BSTAR": -0.021225488, "MEAN_MOTION_DOT": -0.01994872, "MEAN_MOTION_DDOT": 0}, "tle": {"line1": "1 66630U 25271P   25342.91670139 -.01994872  00000+0 -21225-1 0  9994", "line2": "2 66630  53.1591 205.7053 0001032 109.9805 145.4051 15.66605054  3626"}}, "geometry": {"type": "Point", "coordinates": [-148.5882369365886, 10.114044416580866]}}, {"type": "Feature", "properties": {"norad_id": 66631, "name": "STARLINK-35965", "group": "last-30-days", "lat": 11.633013400820612, "lon": -147.39845191710538, "alt_km": 372.9183627594093, "timestamp": "2025-12-09T07:41:31.973638+00:00", "meta": {"OBJECT_NAME": "STARLINK-35965", "OBJECT_ID": "2025-271Q", "EPOCH": "2025-12-08T22:00:03.000096", "MEAN_MOTION": 15.66608251, "ECCENTRICITY": 0.0001009, "INCLINATION": 53.1592, "RA_OF_ASC_NODE": 205.7017, "ARG_OF_PERICENTER": 110.5984, "MEAN_ANOMALY": 146.7014, "EPHEMERIS_TYPE": 0, "CLASSIFICATION_TYPE": "U", "NORAD_CAT_ID": 66631, "ELEMENT_SET_NO": 999, "REV_AT_EPOCH": 362, "BSTAR": -0.0212495, "MEAN_MOTION_DOT": -0.01997067, "MEAN_MOTION_DDOT": 0}, "tle": {"line1": "1 66631U 25271Q   25342.91670139 -.01997067  00000+0 -21250-1 0  9992", "line2": "2 66631  53.1592 205.7017 0001009 110.5984 146.7014 15.66608251  3623"}}, "geometry": {"type": "Point", "coordinates": [-147.39845191710538, 11.633013400820612]}}, {"type": "Feature", "properties": {"norad_id": 66632, "name": "STARLINK-35973", "group": "last-30-days", "lat": 13.146546383026994, "lon": -146.19623562229452, "alt_km": 372.6367384181667, "timestamp": "2025-12-09T07:41:31.973648+00:00", "meta": {"OBJECT_NAME": "STARLINK-35973", "OBJECT_ID": "2025-271R", "EPOCH": "2025-12-08T22:00:03.000096", "MEAN_MOTION": 15.66606994, "ECCENTRICITY": 0.00010208, "INCLINATION": 53.1592, "RA_OF_ASC_NODE": 205.6978, "ARG_OF_PERICENTER": 107.3693, "MEAN_ANOMALY": 151.8488, "EPHEMERIS_TYPE": 0, "CLASSIFICATION_TYPE": "U", "NORAD_CAT_ID": 66632, "ELEMENT_SET_NO": 999, "REV_AT_EPOCH": 357, "BSTAR": -0.02124259, "MEAN_MOTION_DOT": -0.01996415, "MEAN_MOTION_DDOT": 0}, "tle": {"line1": "1 66632U 25271R   25342.91670139 -.01996415  00000+0 -21243-1 0  9991", "line2": "2 66632  53.1592 205.6978 0001020 107.3693 151.8488 15.66606994  3571"}}, "geometry": {"type": "Point", "coordinates": [-146.19623562229452, 13.146546383026994]}}, {"type": "Feature", "properties": {"norad_id": 66633, "name": "STARLINK-35948", "group": "last-30-days", "lat": 14.655149642339676, "lon": -144.97931102249245, "alt_km": 372.40849793233247, "timestamp": "2025-12-09T07:41:31.973658+00:00", "meta": {"OBJECT_NAME": "STARLINK-35948", "OBJECT_ID": "2025-271S", "EPOCH": "2025-12-08T22:00:03.000096", "MEAN_MOTION": 15.66605627, "ECCENTRICITY": 9.398e-05, "INCLINATION": 53.1591, "RA_OF_ASC_NODE": 205.693, "ARG_OF_PERICENTER": 95.1112, "MEAN_ANOMALY": 166.0247, "EPHEMERIS_TYPE": 0, "CLASSIFICATION_TYPE": "U", "NORAD_CAT_ID": 66633, "ELEMENT_SET_NO": 999, "REV_AT_EPOCH": 362, "BSTAR": -0.021221124, "MEAN_MOTION_DOT": -0.01994484, "MEAN_MOTION_DDOT": 0}, "tle": {"line1": "1 66633U 25271S   25342.91670139 -.01994484  00000+0 -21221-1 0  9992", "line2": "2 66633  53.1591 205.6930 0000939  95.1112 166.0247 15.66605627  3626"}}, "geometry": {"type": "Point", "coordinates": [-144.97931102249245, 14.655149642339676]}}, {"type": "Feature", "properties": {"norad_id": 66634, "name": "STARLINK-35967", "group": "last-30-days", "lat": 16.157041377822132, "lon": -143.74493477881114, "alt_km": 372.15163617826875, "timestamp": "2025-12-09T07:41:31.973668+00:00", "meta": {"OBJECT_NAME": "STARLINK-35967", "OBJECT_ID": "2025-271T", "EPOCH": "2025-12-08T22:00:03.000096", "MEAN_MOTION": 15.66606979, "ECCENTRICITY": 9.409e-05, "INCLINATION": 53.1589, "RA_OF_ASC_NODE": 205.6889, "ARG_OF_PERICENTER": 94.0252, "MEAN_ANOMALY": 169.0283, "EPHEMERIS_TYPE": 0, "CLASSIFICATION_TYPE": "U", "NORAD_CAT_ID": 66634, "ELEMENT_SET_NO": 999, "REV_AT_EPOCH": 356, "BSTAR": -0.021258339, "MEAN_MOTION_DOT": -0.01997657, "MEAN_MOTION_DDOT": 0}, "tle": {"line1": "1 66634U 25271T   25342.91670139 -.01997657  00000+0 -21258-1 0  9998", "line2": "2 66634  53.1589 205.6889 0000940  94.0252 169.0283 15.66606979  3569"}}, "geometry": {"type": "Point", "coordinates": [-143.74493477881114, 16.157041377822132]}}, {"type": "Feature", "properties": {"norad_id": 66635, "name": "STARLINK-35955", "group": "last-30-days", "lat": 17.650567008678422, "lon": -142.49295463851155, "alt_km": 371.88798325950575, "timestamp": "2025-12-09T07:41:31.973680+00:00", "meta": {"OBJECT_NAME": "STARLINK-35955", "OBJECT_ID": "2025-271U", "EPOCH": "2025-12-08T22:00:03.000096", "MEAN_MOTION": 15.66605512, "ECCENTRICITY": 0.00010622, "INCLINATION": 53.1591, "RA_OF_ASC_NODE": 205.6846, "ARG_OF_PERICENTER": 109.8251, "MEAN_ANOMALY": 155.1448, "EPHEMERIS_TYPE": 0, "CLASSIFICATION_TYPE": "U", "NORAD_CAT_ID": 66635, "ELEMENT_SET_NO": 999, "REV_AT_EPOCH": 362, "BSTAR": -0.021220536, "MEAN_MOTION_DOT": -0.01994518, "MEAN_MOTION_DDOT": 0}, "tle": {"line1": "1 66635U 25271U   25342.91670139 -.01994518  00000+0 -21221-1 0  9992", "line2": "2 66635  53.1591 205.6846 0001062 109.8251 155.1448 15.66605512  3624"}}, "geometry": {"type": "Point", "coordinates": [-142.49295463851155, 17.650567008678422]}}, {"type": "Feature", "properties": {"norad_id": 66636, "name": "STARLINK-35968", "group": "last-30-days", "lat": 19.137132285924576, "lon": -141.21889605093065, "alt_km": 371.6318751381841, "timestamp": "2025-12-09T07:41:31.973689+00:00", "meta": {"OBJECT_NAME": "STARLINK-35968", "OBJECT_ID": "2025-271V", "EPOCH": "2025-12-08T22:00:03.000096", "MEAN_MOTION": 15.66605673, "ECCENTRICITY": 0.00010102, "INCLINATION": 53.1592, "RA_OF_ASC_NODE": 205.6804, "ARG_OF_PERICENTER": 109.8033, "MEAN_ANOMALY": 157.0829, "EPHEMERIS_TYPE": 0, "CLASSIFICATION_TYPE": "U", "NORAD_CAT_ID": 66636, "ELEMENT_SET_NO": 999, "REV_AT_EPOCH": 362, "BSTAR": -0.021222862, "MEAN_MOTION_DOT": -0.01994683, "MEAN_MOTION_DDOT": 0}, "tle": {"line1": "1 66636U 25271V   25342.91670139 -.01994683  00000+0 -21223-1 0  9998", "line2": "2 66636  53.1592 205.6804 0001010 109.8033 157.0829 15.66605673  3623"}}, "geometry": {"type": "Point", "coordinates": [-141.21889605093065, 19.137132285924576]}}]}